SatCatId,ObjectName,LaunchYear,OrbitalPeriod,LaunchMass,StatusCode,Inclination,Status,UcsData,OrbitClassEstimated,LaunchSiteCountry,Owner,UseType,Purpose,LaunchVehicleClass,TLE1,TLE2,MeanMotion,Eccentricity,OrbitClass
50193,STARLINK-3261,2021,95.44,260.0,+,53.22,Active,1,LEO,USA,USA,Commercial,Communications,Falcon,1 50193U 21125AP  25170.47296388 -.00000632  00000+0 -21598-4 0  9992,2 50193  53.2185 340.7464 0001242  88.7333 271.3802 15.08837105197045,15.08837105,0.0001242,LEO
50194,STARLINK-3269,2021,93.61,260.0,P,53.22,Active,1,LEO,USA,USA,Commercial,Communications,Falcon,1 50194U 21125AQ  25170.91668981  .00116416  00000+0  29951-2 0  9999,2 50194  53.2234 319.1008 0000778  64.5757 342.0036 15.38381498196866,15.38381498,7.78e-05,LEO
50195,STARLINK-3266,2021,95.44,260.0,+,53.22,Active,1,LEO,USA,USA,Commercial,Communications,Falcon,1 50195U 21125AR  25170.46928373 -.00000134  00000+0  96839-5 0  9996,2 50195  53.2181 340.7646 0001365  84.8045 275.3102 15.08838403196990,15.08838403,0.0001365,LEO
50197,STARLINK-3267,2021,95.44,260.0,+,53.22,Active,1,LEO,USA,USA,Commercial,Communications,Falcon,1 50197U 21125AT  25170.45456427  .00000252  00000+0  33931-4 0  9996,2 50197  53.2185 340.8308 0001198  90.9623 269.1506 15.08834258197046,15.08834258,0.0001198,LEO
50198,STARLINK-3264,2021,95.44,260.0,+,53.22,Active,1,LEO,USA,USA,Commercial,Communications,Falcon,1 50198U 21125AU  25170.17487667  .00000135  00000+0  26578-4 0  9995,2 50198  53.2176 342.0858 0001309  90.7142 269.4000 15.08843376196951,15.08843376,0.0001309,LEO
50199,STARLINK-3270,2021,95.44,260.0,+,53.22,Active,1,LEO,USA,USA,Commercial,Communications,Falcon,1 50199U 21125AV  25169.75904419  .00001174  00000+0  91868-4 0  9995,2 50199  53.2168 343.9522 0001257  87.4046 272.7090 15.08832304196886,15.08832304,0.0001257,LEO
50200,STARLINK-3235,2021,95.44,260.0,+,53.22,Active,1,LEO,USA,USA,Commercial,Communications,Falcon,1 50200U 21125AW  25169.78111919  .00001147  00000+0  90104-4 0  9998,2 50200  53.2183 343.8146 0001338  93.1674 266.9471 15.08844053196903,15.08844053,0.0001338,LEO
50201,STARLINK-3255,2021,93.37,260.0,P,53.21,Active,1,LEO,USA,USA,Commercial,Communications,Falcon,1 50201U 21125AX  25170.47415597  .00014454  00000+0  33994-3 0  9994,2 50201  53.2130 333.4066 0000790  30.9567 329.1486 15.42251428197100,15.42251428,7.9e-05,LEO
50202,STARLINK-3256,2021,95.44,260.0,+,53.22,Active,1,LEO,USA,USA,Commercial,Communications,Falcon,1 50202U 21125AY  25170.81520233 -.00000299  00000+0 -71232-6 0  9991,2 50202  53.2177 339.2085 0001355  94.2678 265.8469 15.08837310196569,15.0883731,0.0001355,LEO
50203,STARLINK-3257,2021,95.44,260.0,+,53.22,Active,1,LEO,USA,USA,Commercial,Communications,Falcon,1 50203U 21125AZ  25169.78945020  .00000473  00000+0  47784-4 0  9996,2 50203  53.2177 343.9046 0001302  89.9977 270.1165 15.08837424196955,15.08837424,0.0001302,LEO
50204,STARLINK-3254,2021,95.44,260.0,+,53.22,Active,1,LEO,USA,USA,Commercial,Communications,Falcon,1 50204U 21125BA  25170.22734911 -.00001220  00000+0 -58518-4 0  9993,2 50204  53.2170 341.8573 0001499 101.8514 258.2647 15.08855118197019,15.08855118,0.0001499,LEO
50205,STARLINK-3260,2021,95.44,260.0,+,53.22,Active,1,LEO,USA,USA,Commercial,Communications,Falcon,1 50205U 21125BB  25170.10137011 -.00005761  00000+0 -34461-3 0  9993,2 50205  53.2189 312.4164 0001409  94.7260 265.3893 15.08791356197362,15.08791356,0.0001409,LEO
50206,STARLINK-3258,2021,95.44,260.0,+,53.22,Active,1,LEO,USA,USA,Commercial,Communications,Falcon,1 50206U 21125BC  25169.75629630  .00001125  00000+0  88713-4 0  9994,2 50206  53.2155 343.8593 0001293  85.3643 274.7497 15.08850768194816,15.08850768,0.0001293,LEO
50207,STARLINK-3262,2021,95.44,260.0,+,53.22,Active,1,LEO,USA,USA,Commercial,Communications,Falcon,1 50207U 21125BD  25170.16752289 -.00000520  00000+0 -14560-4 0  9998,2 50207  53.2186 342.1174 0001266  93.0274 267.0863 15.08836539194940,15.08836539,0.0001266,LEO
50212,TURKSAT 5B,2021,1436.12,4500.0,+,0.07,Active,1,GSO,USA,Turkey,Commercial,Communications,Falcon,1 50212U 21126A   25169.98933867  .00000157  00000+0  00000+0 0  9999,2 50212   0.0713 333.0460 0003195  25.7216 306.8748  1.00270458 12650,1.00270458,0.0003195,GEO
50319,INMARSAT 6-F1,2021,1436.15,5470.0,+,0.02,Active,1,GSO,Japan,INMARSAT,Commercial,Communications,H2A,1 50319U 21128A   25170.57753125 -.00000160  00000+0  00000+0 0  9998,2 50319   0.0201  19.7692 0000256 208.6701 331.2676  1.00268323 12628,1.00268323,2.56e-05,GEO
50321,SHIYAN-12 01 (SY-12 01),2021,1433.63,3000.0,+,2.74,Active,1,GSO,PRC,China,Government,Technology Development,Long March,1 50321U 21129A   25170.60198605  .00000155  00000+0  00000+0 0  9995,2 50321   2.7381  85.1067 0001681 259.2632 178.8308  1.00444753 12877,1.00444753,0.0001681,GSO
50322,SHIYAN-12 02 (SY-12 02),2021,1434.45,3000.0,+,2.74,Active,1,GSO,PRC,China,Government,Technology Development,Long March,1 50322U 21129B   25170.81336483 -.00000074  00000+0  00000+0 0  9998,2 50322   2.7372  85.0980 0003843 322.8494 313.2607  1.00386752 12888,1.00386752,0.0003843,GSO
50465,ZY-1 02E,2021,100.32,-1.0,+,98.48,Active,0,LEO,PRC,China,Unknown,Unknown,Unknown,1 50465U 21131A   25170.87809488  .00000069  00000+0  39139-4 0  9998,2 50465  98.4771 249.9837 0002289 103.0186 257.1255 14.35392284182447,14.35392284,0.0002289,LEO
50466,XW-3 (CAS-9),2021,99.94,-1.0,+,98.51,Active,0,LEO,PRC,China,Unknown,Unknown,Unknown,1 50466U 21131B   25170.83041476  .00000378  00000+0  13168-3 0  9996,2 50466  98.5105 260.1330 0005452 104.0699 256.1096 14.40826101182929,14.40826101,0.0005452,LEO
50469,ONEWEB-0389,2021,109.29,148.0,+,87.91,Active,1,LEO,Kazakhstan,UK,Commercial,Communications,Soyuz,1 50469U 21132A   25170.14789467  .00000050  00000+0  96393-4 0  9992,2 50469  87.9072  78.1488 0001757  65.0417 295.0897 13.17650503170276,13.17650503,0.0001757,LEO
50470,ONEWEB-0390,2021,109.29,148.0,+,87.91,Active,1,LEO,Kazakhstan,UK,Commercial,Communications,Soyuz,1 50470U 21132B   25170.45331949  .00000066  00000+0  13654-3 0  9991,2 50470  87.9071  78.0948 0002185  74.6127 285.5246 13.17650593170313,13.17650593,0.0002185,LEO
50471,ONEWEB-0391,2021,109.29,148.0,+,87.91,Active,1,LEO,Kazakhstan,UK,Commercial,Communications,Soyuz,1 50471U 21132C   25170.45499820  .00000053  00000+0  10246-3 0  9995,2 50471  87.9079  78.1072 0002035  51.3604 308.7710 13.17651433170315,13.17651433,0.0002035,LEO
50472,ONEWEB-0392,2021,109.29,148.0,+,87.91,Active,1,LEO,Kazakhstan,UK,Commercial,Communications,Soyuz,1 50472U 21132D   25170.48537583  .00000057  00000+0  11420-3 0  9997,2 50472  87.9063  78.0486 0001815  64.9629 295.1690 13.17650896170351,13.17650896,0.0001815,LEO
50473,ONEWEB-0393,2021,109.29,148.0,+,87.91,Active,1,LEO,Kazakhstan,UK,Commercial,Communications,Soyuz,1 50473U 21132E   25170.45850978  .00000071  00000+0  15086-3 0  9999,2 50473  87.9075  78.0677 0001910  71.4655 288.6684 13.17651394170348,13.17651394,0.000191,LEO
50474,ONEWEB-0394,2021,109.2,148.0,+,87.91,Active,1,LEO,Kazakhstan,UK,Commercial,Communications,Soyuz,1 50474U 21132F   25170.40819324  .00000006  00000+0 -18290-4 0  9995,2 50474  87.9147  47.5292 0001689  77.4167 282.7154 13.18688002173785,13.18688002,0.0001689,LEO
50475,ONEWEB-0395,2021,109.8,148.0,+,87.88,Active,1,LEO,Kazakhstan,UK,Commercial,Communications,Soyuz,1 50475U 21132G   25170.52849205  .00000227  00000+0  60469-3 0  9998,2 50475  87.8845  93.3726 0002107  69.5501 290.5853 13.11417739168182,13.11417739,0.0002107,LEO
50476,ONEWEB-0396,2021,109.2,148.0,+,87.91,Active,1,LEO,Kazakhstan,UK,Commercial,Communications,Soyuz,1 50476U 21132H   25170.40186840 -.00000274  00000+0 -72750-3 0  9995,2 50476  87.9144  47.5432 0001739  78.4866 281.6462 13.18686174173826,13.18686174,0.0001739,LEO
50477,ONEWEB-0397,2021,109.2,148.0,+,87.91,Active,1,LEO,Kazakhstan,UK,Commercial,Communications,Soyuz,1 50477U 21132J   25170.41609378 -.00000301  00000+0 -79608-3 0  9993,2 50477  87.9143  47.5416 0001630  83.0234 277.1083 13.18685694173802,13.18685694,0.000163,LEO
50478,ONEWEB-0398,2021,109.81,148.0,+,87.88,Active,1,LEO,Kazakhstan,UK,Commercial,Communications,Soyuz,1 50478U 21132K   25170.49627125 -.00000315  00000+0 -92440-3 0  9996,2 50478  87.8837  93.3437 0002426  75.5277 284.6120 13.11415179168071,13.11415179,0.0002426,LEO
50479,ONEWEB-0399,2021,109.81,148.0,+,87.88,Active,1,LEO,Kazakhstan,UK,Commercial,Communications,Soyuz,1 50479U 21132L   25170.48271181  .00000150  00000+0  38668-3 0  9990,2 50479  87.8838  93.3698 0001652  75.3180 284.8131 13.11414601168065,13.11414601,0.0001652,LEO
50480,ONEWEB-0400,2021,109.2,148.0,+,87.91,Active,1,LEO,Kazakhstan,UK,Commercial,Communications,Soyuz,1 50480U 21132M   25170.39555566 -.00000059  00000+0 -18286-3 0  9998,2 50480  87.9143  47.5363 0002022  78.8814 281.2545 13.18684014173791,13.18684014,0.0002022,LEO
50481,ONEWEB-0401,2021,109.2,148.0,+,87.91,Active,1,LEO,Kazakhstan,UK,Commercial,Communications,Soyuz,1 50481U 21132N   25170.13472882  .00000087  00000+0  18910-3 0  9993,2 50481  87.9146  47.5827 0001651  85.6491 274.4830 13.18688259173767,13.18688259,0.0001651,LEO
50482,ONEWEB-0402,2021,109.2,148.0,+,87.91,Active,1,LEO,Kazakhstan,UK,Commercial,Communications,Soyuz,1 50482U 21132P   25170.40346063 -.00000074  00000+0 -22015-3 0  9994,2 50482  87.9139  47.5244 0001485  98.8875 261.2426 13.18688221173821,13.18688221,0.0001485,LEO
50483,ONEWEB-0403,2021,109.2,148.0,+,87.91,Active,1,LEO,Kazakhstan,UK,Commercial,Communications,Soyuz,1 50483U 21132Q   25170.35128391  .00000010  00000+0 -68185-5 0  9990,2 50483  87.9148  47.5519 0001802  76.6054 283.5279 13.18688507173777,13.18688507,0.0001802,LEO
50484,ONEWEB-0404,2021,109.8,148.0,+,87.88,Active,1,LEO,Kazakhstan,UK,Commercial,Communications,Soyuz,1 50484U 21132R   25170.23517514  .00000665  00000+0  18405-2 0  9999,2 50484  87.8849  93.4202 0001884  67.1888 292.9438 13.11416159168123,13.11416159,0.0001884,LEO
